#aV2015  7  9  0  0  0.00000000     288 DD+AD WGS84 FIT  NGA
## 1852 345600.00000000   300.00000000 57212 0.0000000000000
+   31     1  2  3  4  5  6  7  9 10 11 12 13 14 15 16 17 18
+         19 20 21 22 23 24 25 26 27 28 29 30 31 32  0  0  0
+          0  0  0  0  0  0  0  0  0  0  0  0  0  0  0  0  0
+          0  0  0  0  0  0  0  0  0  0  0  0  0  0  0  0  0
+          0  0  0  0  0  0  0  0  0  0  0  0  0  0  0  0  0
++         2  2  2  2  2  2  2  2  2  2  2  2  2  2  2  2  2
++         2  2  2  2  2  2  2  2  2  2  2  2  2  2  0  0  0
++         0  0  0  0  0  0  0  0  0  0  0  0  0  0  0  0  0
++         0  0  0  0  0  0  0  0  0  0  0  0  0  0  0  0  0
++         0  0  0  0  0  0  0  0  0  0  0  0  0  0  0  0  0
%c cc cc ccc ccc cccc cccc cccc cccc ccccc ccccc ccccc ccccc
%c cc cc ccc ccc cccc cccc cccc cccc ccccc ccccc ccccc ccccc
%f  0.0000000  0.000000000  0.00000000000  0.000000000000000
%f  0.0000000  0.000000000  0.00000000000  0.000000000000000
%i    0    0    0    0      0      0      0      0         0
%i    0    0    0    0      0      0      0      0         0
/*      NGA, ST. LOUIS,MO.                                  
/*   EPHEMERIS COMPUTED FROM  1 DAYS OF DATA                
/*   EPOCHA SMOOTHER                                       
/* CCCCCCCCCCCCCCCCCCCCCCCCCCCCCCCCCCCCCCCCCCCCCCCCCCCCCCCCC
*  2015  7  9  6 20  0.00000000
P  1 -13582.262992  20393.207705   9942.581479     -3.150725                    
V  1   1282.868640 -12973.471367  28392.140071      0.005507                    
P  2  15566.343444   1222.622606 -21076.098759    577.105492                    
V  2  -6617.904050  26967.112374  -3704.987044      0.023742                    
P  3 -19132.315838  13501.178120 -12550.568632      4.606870                    
V  3 -16067.001435   1345.962223  25876.290039      0.050365                    
P  4 -16109.635384  12544.377859  16513.119080     -0.031984                    
V  4   3624.130614 -21598.160762  19815.966706     -0.027408                    
P  5  25910.393298  -1737.138083  -6078.430296   -220.097700                    
V  5  -6717.193391   4694.982009 -30037.211470      0.043540                    
P  6   9571.673748  15290.969116 -19497.487485     12.375421                    
V  6  -8321.341111  23340.428484  14212.556531      0.082945                    
P  7  -5491.273054  25469.664137   4060.550757    473.421402                    
V  7  -4245.906781   3938.650880 -31652.438322      0.021810                    
P  9   1389.361496  19693.813749 -17764.581478     -5.606681                    
V  9 -16728.749028 -15236.122573 -18223.571661     -0.028751                    
P 10  14435.188451  11443.146346 -19667.671853   -181.858077                    
V 10 -23230.835832   6425.420185 -13163.174873     -0.014597                    
P 11 -11767.306169  17307.211012  15753.204726   -590.217922                    
V 11  -4457.245601 -21067.316760  19286.785030     -0.024845                    
P 12  21515.371053 -11127.003982 -10742.454115    308.346796                    
V 12  13619.774817   -678.358241  28463.923512      0.032900                    
P 13  19364.086650   7225.393829  16475.454661   -130.531572                    
V 13  11318.414729  18002.653023 -21139.772908     -0.033777                    
P 14 -14433.269296 -22123.838497   3741.339865     50.260444                    
V 14   4678.518462   1915.342935  31307.769760     -0.027201                    
P 15  16217.718956  -5279.040853  20337.254018   -259.451861                    
V 15  18054.198847  18820.912787  -9149.260685     -0.021209                    
P 16 -25978.721338    -37.041257  -6484.111381   -110.508252                    
V 16   7672.455864  -2767.228419 -30756.452766      0.040416                    
P 17  15558.511469  21478.826559   3141.398481   -179.339661                    
V 17  -4016.035505  -1299.253593  31562.749169     -0.016689                    
P 18     64.420548 -16552.606046  21244.108734    415.766159                    
V 18  25371.215666  -5760.209248  -4974.249956      0.030424                    
P 19 -16808.548616   1155.681861  20444.121600   -515.447563                    
V 19 -15516.761545 -21209.783622 -10990.321338     -0.009646                    
P 20  21100.863381 -13517.901756   8785.303665    336.817181                    
V 20  11924.110665    -30.668641 -28127.170124      0.032642                    
P 21   1988.807976 -25568.132746   6872.364200   -462.190589                    
V 21   5669.655112  -6645.169795 -29729.726441     -0.032302                    
P 22 -13436.644023 -12039.372460  19781.609537    369.257567                    
V 22  23601.558712  -7423.900188  11476.484978      0.038445                    
P 23  -9961.627143  11848.703266 -21399.628105   -119.858286                    
V 23 -19131.504930 -19933.640121  -2553.307636     -0.023698                    
P 24  14393.258232 -18468.763899  12359.743303     -1.009324                    
V 24  -1811.355752  15938.122604  25992.521342     -0.006534                    
P 25   9955.704727 -15547.786143 -19133.147439    -10.898958                    
V 25  23732.052557  -4305.500014  16090.999623     -0.044161                    
P 26 -20810.859086  -6109.680721 -15342.178483     -6.366832                    
V 26  18480.773321  -6434.191175 -22514.566349     -0.047929                    
P 27 -21063.361156  -8404.517640  13900.444092      2.963075                    
V 27 -10684.854107 -14153.095517 -24588.732389      0.027850                    
P 28   8233.562497  13380.479762  22050.113854    452.346586                    
V 28 -26062.557511   4457.177545   7151.428342      0.025212                    
P 29   1245.694646 -18558.543951 -18962.017194    621.349254                    
V 29  16379.252407  17664.207181 -16151.221569      0.022263                    
P 30   1856.945967  22504.375000  13915.917537    -17.586299                    
V 30  -8560.458614  15697.680854 -24300.731525      0.077349                    
P 31 -10500.433850 -12641.277475 -20657.516911    310.413622                    
V 31   9452.663171 -24852.504674  10663.011581     -0.012148                    
P 32 -25796.022801   4770.123915  -1284.138686   -104.706982                    
V 32  -2160.968544  -3458.190997  31732.474363      0.099199                    
EOF
